     3.04           N: GNSS NAV DATA    G: GPS              RINEX VERSION / TYPE
sbf2rin-13.8.0                          20220211 112007 UTC PGM / RUN BY / DATE 
GPSA   1.5832E-08 -7.4506E-09 -5.9605E-08  5.9605E-08       IONOSPHERIC CORR    
GPSB   1.2288E+05 -6.5536E+04 -1.3107E+05 -6.5536E+04       IONOSPHERIC CORR    
                                                            COMMENT             
                                                            COMMENT             
ABPO                                    MARKER NAME         COMMENT
33302M001                               MARKER NUMBER       COMMENT
  4097216.5539  4429119.1897 -2065771.1988                  COMMENT
                                                            END OF HEADER       
G01 2022 02 11 09 59 44 4.342766478658E-04-9.549694368616E-12 0.000000000000E+00
     9.000000000000E+00-6.053125000000E+01 4.137672350662E-09-1.895409445583E-01
    -3.058463335037E-06 1.136995689012E-02 3.438442945480E-06 5.153669618607E+03
     4.679840000000E+05 1.862645149231E-08-1.787789157326E+00 1.527369022369E-07
     9.866494570416E-01 3.297500000000E+02 8.813775341235E-01-8.227485564941E-09
    -1.535778257043E-11 1.000000000000E+00 2.196000000000E+03 0.000000000000E+00
     2.000000000000E+00 0.000000000000E+00 5.122274160385E-09 9.000000000000E+00
     4.608180000000E+05 4.000000000000E+00
G02 2022 02 11 09 59 44-6.506466306746E-04-6.821210263297E-13 0.000000000000E+00
     3.000000000000E+00-3.825000000000E+01 4.619835291826E-09-4.205580509595E-02
    -2.235174179077E-06 2.067987585906E-02 3.429129719734E-06 5.153688213348E+03
     4.679840000000E+05-3.408640623093E-07-1.877000719380E+00-9.126961231232E-08
     9.649926474743E-01 3.175312500000E+02-1.444565192647E+00-8.600001081708E-09
     7.143154683922E-11 1.000000000000E+00 2.196000000000E+03 0.000000000000E+00
     2.000000000000E+00 0.000000000000E+00-1.769512891769E-08 3.000000000000E+00
     4.648260000000E+05 4.000000000000E+00
G03 2022 02 11 10 00 00-1.164232380688E-04-1.693933882052E-11 0.000000000000E+00
     4.500000000000E+01-8.965625000000E+01 4.203746531488E-09-1.343570265803E+00
    -4.567205905914E-06 3.889955463819E-03 8.795410394669E-06 5.153686548233E+03
     4.680000000000E+05 7.823109626770E-08-7.523041886034E-01 6.519258022308E-08
     9.725874510512E-01 2.178125000000E+02 9.604922140703E-01-7.763537668220E-09
     1.853648640478E-10 1.000000000000E+00 2.196000000000E+03 0.000000000000E+00
     2.000000000000E+00 0.000000000000E+00 1.862645149231E-09 4.500000000000E+01
     4.608180000000E+05 4.000000000000E+00
G04 2022 02 11 10 00 00-1.902012154460E-04 2.160049916711E-12 0.000000000000E+00
     4.100000000000E+01-2.843750000000E+00 4.735554397706E-09 1.596091719375E+00
     5.029141902924E-08 1.693377969787E-03 7.929280400276E-06 5.153650585175E+03
     4.680000000000E+05 7.078051567078E-08 3.286407560866E-01 2.980232238770E-08
     9.614270684622E-01 2.274687500000E+02-3.063580011776E+00-7.984618305688E-09
     2.578678840896E-10 1.000000000000E+00 2.196000000000E+03 0.000000000000E+00
     2.000000000000E+00 0.000000000000E+00-4.190951585770E-09 5.530000000000E+02
     4.608180000000E+05 4.000000000000E+00
G05 2022 02 11 10 00 00-7.104035466909E-05-1.364242052659E-12 0.000000000000E+00
     1.100000000000E+01-8.093750000000E+01 4.473757778540E-09 2.465320260130E+00
    -4.233792424202E-06 5.879233125597E-03 8.121132850647E-06 5.153669057846E+03
     4.680000000000E+05 1.490116119385E-08-7.926510698530E-01-1.154839992523E-07
     9.595591985665E-01 2.237812500000E+02 1.009494663722E+00-7.837469319199E-09
     1.210764718925E-10 1.000000000000E+00 2.196000000000E+03 0.000000000000E+00
     2.000000000000E+00 0.000000000000E+00-1.117587089539E-08 1.100000000000E+01
     4.635780000000E+05 4.000000000000E+00
G06 2022 02 11 10 00 00 1.980816014111E-04 1.182343112305E-11 0.000000000000E+00
     8.800000000000E+01-5.025000000000E+01 4.046954286176E-09 1.464233754642E-01
    -2.687796950340E-06 2.689810353331E-03 3.227964043617E-06 5.153665943146E+03
     4.680000000000E+05 1.303851604462E-08-1.796062898258E+00-4.842877388000E-08
     9.860282566747E-01 3.264687500000E+02-9.640626075458E-01-8.037120492614E-09
     2.142946405177E-11 1.000000000000E+00 2.196000000000E+03 0.000000000000E+00
     2.000000000000E+00 0.000000000000E+00 3.725290298462E-09 8.800000000000E+01
     4.608180000000E+05 4.000000000000E+00
G07 2022 02 11 10 00 00 3.094566054642E-04 2.842170943040E-12 0.000000000000E+00
     7.500000000000E+01 7.156250000000E+00 5.006994275695E-09-8.561058174093E-01
     4.023313522339E-07 1.552892359905E-02 6.627291440964E-06 5.153686090469E+03
     4.680000000000E+05 1.564621925354E-07 1.347597925046E+00 2.998858690262E-07
     9.506412470294E-01 2.450937500000E+02-2.292089652563E+00-8.284273644678E-09
    -3.910877189447E-10 1.000000000000E+00 2.196000000000E+03 0.000000000000E+00
     2.000000000000E+00 0.000000000000E+00-1.117587089539E-08 7.500000000000E+01
     4.608180000000E+05 4.000000000000E+00
G09 2022 02 11 10 00 00-3.546318039298E-04 1.591615728103E-12 0.000000000000E+00
     7.600000000000E+01-4.406250000000E+00 4.809843206419E-09 2.439801810579E+00
    -1.136213541031E-07 2.259769709781E-03 7.878988981247E-06 5.153620096207E+03
     4.680000000000E+05 5.401670932770E-08 2.757345110034E-01-7.450580596924E-08
     9.544402975266E-01 2.203750000000E+02 1.869926065103E+00-7.993190091308E-09
     2.596536727606E-10 1.000000000000E+00 2.196000000000E+03 0.000000000000E+00
     2.000000000000E+00 0.000000000000E+00 1.396983861923E-09 7.600000000000E+01
     4.608180000000E+05 4.000000000000E+00
G11 2022 02 11 10 00 00-9.264936670661E-05 1.273292582482E-11 0.000000000000E+00
     0.000000000000E+00-5.512500000000E+01 4.602334562851E-09 1.930669712394E+00
    -3.086403012276E-06 2.708580577746E-04 3.151595592499E-06 5.153770534515E+03
     4.680000000000E+05 1.303851604462E-08-1.743908382407E+00-1.117587089539E-08
     9.617542091289E-01 3.176250000000E+02 2.873633609231E+00-8.248557871259E-09
     3.142988060926E-11 1.000000000000E+00 2.196000000000E+03 0.000000000000E+00
     8.000000000000E+00 6.300000000000E+01-8.847564458847E-09 0.000000000000E+00
     4.619280000000E+05 4.000000000000E+00
G13 2022 02 11 10 00 00 2.599051222205E-04 6.252776074689E-12 0.000000000000E+00
     8.900000000000E+01 4.062500000000E-01 4.587691095749E-09 1.506044567773E+00
     2.235174179077E-08 5.797972902656E-03 7.672235369682E-06 5.153670673370E+03
     4.680000000000E+05-1.825392246246E-07 4.284627737315E-01 4.656612873077E-08
     9.688318667761E-01 2.370625000000E+02 9.595437998908E-01-7.940330746647E-09
     2.542963067476E-10 1.000000000000E+00 2.196000000000E+03 0.000000000000E+00
     2.000000000000E+00 0.000000000000E+00-1.117587089539E-08 8.900000000000E+01
     4.654980000000E+05 4.000000000000E+00
G14 2022 02 11 10 00 00-8.251890540123E-05-4.661160346586E-12 0.000000000000E+00
     8.100000000000E+01 6.275000000000E+01 4.319822795102E-09-1.446142619176E+00
     3.257766366005E-06 1.425979076885E-03 9.410083293915E-06 5.153651775360E+03
     4.680000000000E+05-1.266598701477E-07 2.429295839523E+00-2.048909664154E-08
     9.537698714292E-01 1.955625000000E+02 3.019048010096E+00-7.820682905692E-09
    -2.646538810393E-10 1.000000000000E+00 2.196000000000E+03 0.000000000000E+00
     2.000000000000E+00 0.000000000000E+00-7.450580596924E-09 8.100000000000E+01
     4.608180000000E+05 4.000000000000E+00
G17 2022 02 11 09 59 44 5.736304447055E-04 5.002220859751E-12 0.000000000000E+00
     3.000000000000E+00 7.318750000000E+01 3.889090567661E-09 1.987155887716E+00
     3.678724169731E-06 1.363161299378E-02 4.222616553307E-06 5.153757913589E+03
     4.679840000000E+05 1.937150955200E-07-2.785663150303E+00-1.266598701477E-07
     9.801600475317E-01 3.035625000000E+02-1.499755775534E+00-7.759608933144E-09
     1.725071856167E-10 1.000000000000E+00 2.196000000000E+03 0.000000000000E+00
     2.000000000000E+00 0.000000000000E+00-1.117587089539E-08 3.000000000000E+00
     4.639560000000E+05 4.000000000000E+00
G19 2022 02 11 10 00 00 1.174695789814E-04 5.002220859751E-12 0.000000000000E+00
     6.200000000000E+01 7.287500000000E+01 4.001595253933E-09-1.883959904069E+00
     4.123896360397E-06 8.965448942035E-03 4.461035132408E-06 5.153684864044E+03
     4.680000000000E+05-1.061707735062E-07-2.740790904600E+00 2.123415470123E-07
     9.788943176432E-01 3.028437500000E+02 2.006672038516E+00-7.939616431179E-09
     2.167947446570E-10 1.000000000000E+00 2.196000000000E+03 0.000000000000E+00
     2.000000000000E+00 0.000000000000E+00-1.583248376846E-08 6.200000000000E+01
     4.608180000000E+05 4.000000000000E+00
G20 2022 02 11 10 00 00 5.167559720576E-04-2.273736754432E-13 0.000000000000E+00
     2.700000000000E+01-8.337500000000E+01 4.943777356742E-09 8.354135477675E-01
    -4.377216100693E-06 5.179342930205E-03 7.530674338341E-06 5.153747228622E+03
     4.680000000000E+05 8.009374141693E-08-9.066112413001E-01 7.078051567078E-08
     9.417006392801E-01 2.269062500000E+02 3.127859507195E+00-8.195341368863E-09
     6.143113028173E-11 1.000000000000E+00 2.196000000000E+03 0.000000000000E+00
     2.000000000000E+00 0.000000000000E+00-8.381903171539E-09 2.700000000000E+01
     4.608180000000E+05 4.000000000000E+00
G28 2022 02 11 10 00 00 4.028840921819E-04-8.071765478235E-12 0.000000000000E+00
     3.300000000000E+01 7.112500000000E+01 3.897305195548E-09 2.475319735300E+00
     3.676861524582E-06 1.683345797937E-02 9.020790457726E-06 5.153702239990E+03
     4.680000000000E+05 1.490116119385E-07 2.482599811070E+00 7.636845111847E-08
     9.694919222472E-01 2.053437500000E+02-1.288676963962E+00-7.381021734896E-09
    -3.342996392075E-10 1.000000000000E+00 2.196000000000E+03 0.000000000000E+00
     2.000000000000E+00 6.300000000000E+01-1.117587089539E-08 3.300000000000E+01
     4.608180000000E+05 4.000000000000E+00
